{
"type": "FeatureCollection",
"name": "AcuiferoMocorito",
"crs": { "type": "name", "properties": { "name": "urn:ogc:def:crs:OGC:1.3:CRS84" } },
"features": [
{ "type": "Feature", "properties": { "OBJECTID": 139, "CLV_EDO": "25", "NOM_EDO": "SINALOA", "CLV_REGION": "3", "NOM_REGION": "PACIFICO NORTE", "CLV_ACUI": "2503", "NOM_ACUI": "RIO MOCORITO", "AREA_KM2": 4492.42, "RECARGA_TO": 211.6, "DESCARGA_N": 99.3, "VCAS": 109.102653, "VEALA": 4.703585, "VAPTYR": 0.322033, "VAPRH": 0.397012, "VEAS": 114.525283, "DMA_POSITI": 0.0, "DMA_NEGATI": -2.225283, "Area(M2)": 4536143161.7470102, "Area(Ha)": 453614.3162 }, "geometry": { "type": "MultiPolygon", "coordinates": [ [ [ [ -108.380943490019035, 25.181634583381619 ], [ -108.380892584458223, 25.180594117830299 ], [ -108.381596324604175, 25.180985161799914 ], [ -108.380943490019035, 25.181634583381619 ] ] ], [ [ [ -108.380686310145052, 25.180585856551456 ], [ -108.380591538215398, 25.181887291312638 ], [ -108.380643453560964, 25.182705341704644 ], [ -108.379766752628512, 25.183650826222056 ], [ -108.379131519584433, 25.183007521733511 ], [ -108.380208354023878, 25.181339567215488 ], [ -108.380253437154153, 25.180907061005321 ], [ -108.380267532424128, 25.180246798112886 ], [ -108.380673607071017, 25.18047243969777 ], [ -108.380686310145052, 25.180585856551456 ] ] ], [ [ [ -108.330805888034675, 25.104461999968091 ], [ -108.331079525918952, 25.105092557528934 ], [ -108.331543520681038, 25.10602530508147 ], [ -108.331695806322045, 25.10623469805012 ], [ -108.331790985179126, 25.106339393942694 ], [ -108.331938510866991, 25.106463125880559 ], [ -108.332228804658556, 25.106734385628656 ], [ -108.332438197686571, 25.106996126045999 ], [ -108.332628555104733, 25.107281661048706 ], [ -108.332714215062225, 25.107400634325312 ], [ -108.332952162159884, 25.107633821286004 ], [ -108.333071134648407, 25.107724240859934 ], [ -108.333237696765565, 25.107843214037718 ], [ -108.333718347885224, 25.108157303427443 ], [ -108.333846838787849, 25.108233445345231 ], [ -108.334187214135767, 25.10840690720585 ], [ -108.334836695418062, 25.10873789165132 ], [ -108.334936631633582, 25.108785480002897 ], [ -108.335107952568151, 25.108861622900015 ], [ -108.335255479562761, 25.108923489490902 ], [ -108.335417282642567, 25.108975837134626 ], [ -108.335583844973883, 25.109028185610448 ], [ -108.335800062324921, 25.109108141012889 ], [ -108.336303327564366, 25.111360581170583 ], [ -108.336127860114601, 25.114181427575993 ], [ -108.334930035354319, 25.1177709053146 ], [ -108.334067918214188, 25.123052125185488 ], [ -108.334823972919338, 25.124625502923486 ], [ -108.334555918015496, 25.124699315035112 ], [ -108.334427427160236, 25.124761181537565 ], [ -108.334372024569205, 25.124785188888769 ], [ -108.341240730238667, 25.137979011667912 ], [ -108.354858631916926, 25.166318367528113 ], [ -108.357010170181795, 25.167323489266288 ], [ -108.357942862704277, 25.167841754123728 ], [ -108.357452880412708, 25.169193830554875 ], [ -108.378838552181236, 25.183447024346126 ], [ -108.379182490865546, 25.183676203811771 ], [ -108.383667339139251, 25.186664480308675 ], [ -108.384624949355583, 25.187302509477838 ], [ -108.385205378850031, 25.186458750234511 ], [ -108.385801953709446, 25.18620990488893 ], [ -108.386068909953337, 25.186098550471709 ], [ -108.387043579903022, 25.185295060076282 ], [ -108.387358955352042, 25.185153245091058 ], [ -108.387711115282002, 25.185143728435101 ], [ -108.388020444551998, 25.185167522557556 ], [ -108.388567720776436, 25.185267460336455 ], [ -108.389014280811381, 25.185538458902585 ], [ -108.389555599043632, 25.186170719229445 ], [ -108.38992203637487, 25.186437219406098 ], [ -108.390064804981705, 25.186560951569426 ], [ -108.390202813463404, 25.186727513122683 ], [ -108.390364616711253, 25.186979736120414 ], [ -108.390512144498615, 25.187246236500098 ], [ -108.39087087781472, 25.187659982109942 ], [ -108.391210270267109, 25.18820569172059 ], [ -108.391249937398939, 25.188288086904187 ], [ -108.391665937997359, 25.189406683018458 ], [ -108.391958284323934, 25.189901360271513 ], [ -108.392098782615605, 25.190122276519581 ], [ -108.392602133354714, 25.191139387543803 ], [ -108.393227444832576, 25.191749022714738 ], [ -108.393260769062863, 25.191796173703601 ], [ -108.393406640753597, 25.192011454887677 ], [ -108.332463078129678, 25.286467718106437 ], [ -108.314408201152872, 25.403129721795182 ], [ -108.302544773953713, 25.493692603828457 ], [ -108.232998537670099, 25.565023752265155 ], [ -108.094893123502075, 25.637649288918542 ], [ -107.966403935728977, 25.744969554239169 ], [ -107.826271025975018, 25.632959461564887 ], [ -107.650839007280709, 25.790948398973701 ], [ -107.635738542275504, 25.696822795663742 ], [ -107.644565818548813, 25.356075253354497 ], [ -107.916080091287171, 25.242463544662833 ], [ -107.87467609344489, 25.171752301288688 ], [ -107.800507483009341, 25.155086281691567 ], [ -107.813285493855005, 25.093422927553583 ], [ -107.818311660667717, 25.006847415897074 ], [ -107.766062011638013, 24.971483421761477 ], [ -107.89217549353161, 24.938429442425122 ], [ -108.176747997053823, 24.93899832590181 ], [ -108.179957841984745, 24.944881677473127 ], [ -108.184611900136431, 24.952241796221699 ], [ -108.189685586389572, 24.960523123347855 ], [ -108.191539579270867, 24.963200916914378 ], [ -108.195262822627967, 24.968405830124137 ], [ -108.202556719850804, 24.979200924209199 ], [ -108.205127896379466, 24.98337401095705 ], [ -108.208706181015486, 24.989360903160165 ], [ -108.210117661549262, 24.992492627424991 ], [ -108.21349757937837, 24.998872417849149 ], [ -108.214176615747121, 25.000382969264535 ], [ -108.217648085373028, 25.005852992983211 ], [ -108.22111955275696, 25.010998782187386 ], [ -108.224476577158455, 25.015906163901736 ], [ -108.230252178816784, 25.023235763111625 ], [ -108.236287184017328, 25.030231590929336 ], [ -108.241597378917177, 25.036531268633105 ], [ -108.253217236070725, 25.048144565349212 ], [ -108.258931792841821, 25.053439113527588 ], [ -108.265615303859533, 25.05897778842689 ], [ -108.272657406858158, 25.065081012885585 ], [ -108.278738180994779, 25.070047509641785 ], [ -108.285444578818797, 25.075240969701234 ], [ -108.29164742539686, 25.080093030553314 ], [ -108.299345665691334, 25.085315096077316 ], [ -108.307654270506276, 25.090537159490822 ], [ -108.311316466033631, 25.092976539186779 ], [ -108.316031541282243, 25.095852678838938 ], [ -108.318404338847458, 25.097273583105114 ], [ -108.330153876871975, 25.103804018051573 ], [ -108.330738380659056, 25.104220903460707 ], [ -108.330805888034675, 25.104461999968091 ] ] ] ] } }
]
}
